{
"type": "FeatureCollection",
"name": "emzb_250807",
"crs": { "type": "name", "properties": { "name": "urn:ogc:def:crs:OGC:1.3:CRS84" } },
"features": [
{ "type": "Feature", "properties": { "Name": "IndyEast Economic Mobility District" }, "geometry": { "type": "LineString", "coordinates": [ [ -86.1402594, 39.7849524, 0.0 ], [ -86.1405599, 39.7806155, 0.0 ], [ -86.1420188, 39.7765919, 0.0 ], [ -86.1444221, 39.7530552, 0.0 ], [ -86.1442007, 39.7508374, 0.0 ], [ -86.1426061, 39.748801, 0.0 ], [ -86.1383306, 39.7453281, 0.0 ], [ -86.137538, 39.7431299, 0.0 ], [ -86.1373221, 39.737245, 0.0 ], [ -86.0821655, 39.7376741, 0.0 ], [ -86.0829729, 39.81125, 0.0 ], [ -86.1373543, 39.8109696, 0.0 ], [ -86.1400386, 39.7998424, 0.0 ], [ -86.1402594, 39.7849524, 0.0 ] ] } }
]
}
